IRIDIUM 116             
1 43072U 17083C   25015.81165019  .00000395  00000+0  13412-3 0  9999
2 43072  86.4007 178.2424 0002401  95.8925 264.2544 14.34218422370015
IRIDIUM 130             
1 43073U 17083D   25016.40784552  .00000465  00000+0  15885-3 0  9999
2 43073  86.4009 178.2173 0002013  98.8096 261.3328 14.34223945370047
IRIDIUM 151             
1 43074U 17083E   25016.45225818  .00000171  00000+0  54144-4 0  9996
2 43074  86.4003 178.0201 0002137  91.1182 269.0258 14.34217506370077
IRIDIUM 134             
1 43075U 17083F   25016.90892289  .00000275  00000+0  91028-4 0  9996
2 43075  86.4004 177.8306 0002082  97.5137 262.6296 14.34218721370106
IRIDIUM 137             
1 43076U 17083G   25016.43323028  .00000507  00000+0  17396-3 0  9998
2 43076  86.4005 178.1111 0002537  89.3548 270.7939 14.34219246370103
IRIDIUM 141             
1 43077U 17083H   25016.42689044  .00000509  00000+0  17480-3 0  9997
2 43077  86.4000 177.9741 0001678  92.3953 267.7435 14.34220400370105
IRIDIUM 153             
1 43078U 17083J   25016.37906398  .00000525  00000+0  18039-3 0  9995
2 43078  86.4012 146.5219 0001309  91.5900 268.5446 14.34221678371206
IRIDIUM 131             
1 43079U 17083K   25016.48397146  .00000060  00000+0  14392-4 0  9996
2 43079  86.4007 178.1015 0002007  89.9203 270.2222 14.34216989370041
